ALOS (DAICHI)           
1 28931U 06002A   26098.86422140  .00001258  00000+0  21851-3 0  9998
2 28931  98.1264  54.6801 0001324 114.9695 245.1648 14.69907998 77910
H-2A R/B                
1 28932U 06002B   26099.28573251  .00009644  00000+0  47263-3 0  9998
2 28932  98.2473 248.9676 0052500 136.9473 223.5884 15.17157788 99073
RESURS-DK 1             
1 29228U 06021A   26099.28108770  .00001823  00000+0  10931-3 0  9991
2 29228  69.9322 157.8850 0002252  22.8151 337.3115 15.12933622 92154
CZ-4B R/B               
1 29507U 06046C   26099.08225250  .00003709  00000+0  18728-3 0  9996
2 29507  97.5535 143.9057 0033726 159.8192 200.4384 15.17233135 64657
CZ-2C R/B               
1 31114U 07010B   26099.30130179  .00000146  00000+0  86041-4 0  9991
2 31114  98.4011 211.0506 0058598 204.1415 155.7014 14.20258358984060
COSMO-SKYMED 1          
1 31598U 07023A   26099.28503657  .00003440  00000+0  30584-3 0  9993
2 31598  97.8890 290.5678 0001754  92.1013 268.0409 14.96777647 19488
COSMOS 2428             
1 31792U 07029A   26099.18893806 -.00000100  00000+0 -27704-4 0  9995
2 31792  70.9413 139.3305 0009660 245.1651 114.8466 14.12948832968406
SL-16 R/B               
1 31793U 07029B   26099.02972007 -.00000222  00000+0 -90220-4 0  9998
2 31793  70.9732 108.6080 0002906 274.8795 116.5943 14.14842988969669
KORONAS-FOTON           
1 33504U 09003A   26098.90566251  .00010782  00000+0  23354-3 0  9993
2 33504  82.4293 244.4405 0011187  50.8995 309.3246 15.44214061950405
CZ-2C R/B               
1 37731U 11030B   26098.86650599  .00001091  00000+0  14365-3 0  9991
2 37731  97.8592  55.5383 0050991 251.7324 126.4038 14.81328554794566
H-2A R/B                
1 38341U 12025E   26099.31009969  .00002446  00000+0  22371-3 0  9995
2 38341  98.4771  68.8230 0043644 211.1361 148.7270 14.95380375752794
SHIJIAN-16 (SJ-16)      
1 39358U 13057A   26099.26457719  .00000797  00000+0  80435-4 0  9997
2 39358  74.9705 127.2049 0015499  33.4786 326.7379 14.92451140676069
SL-4 R/B                
1 39679U 14021B   26099.26333819  .00014099  00000+0  30319-3 0  9994
2 39679  51.6054 188.0028 0093807 214.6241 144.8613 15.40332310660989
ALOS-2                  
1 39766U 14029A   26097.53042397  .00000055  00000+0  14196-4 0  9998
2 39766  97.9196 195.7083 0001762  93.2091 266.9322 14.79459327641133
YAOGAN-29               
1 41038U 15069A   26099.29154006  .00000284  00000+0  41549-4 0  9990
2 41038  98.0100 127.7974 0000499 172.9847 187.1373 14.83029574560412
ASTRO-H (HITOMI)        
1 41337U 16012A   26099.23758336  .00002545  00000+0  14619-3 0  9990
2 41337  30.9983 159.3833 0009686 278.5571  81.3969 15.10206812556859
