[{"OBJECT_NAME":"ALOS (DAICHI)","OBJECT_ID":"2006-002A","EPOCH":"2026-04-08T20:44:28.728960","MEAN_MOTION":14.69907998,"ECCENTRICITY":0.00013249,"INCLINATION":98.1264,"RA_OF_ASC_NODE":54.6801,"ARG_OF_PERICENTER":114.9695,"MEAN_ANOMALY":245.1648,"EPHEMERIS_TYPE":0,"CLASSIFICATION_TYPE":"U","NORAD_CAT_ID":28931,"ELEMENT_SET_NO":999,"REV_AT_EPOCH":7791,"BSTAR":0.00021851015,"MEAN_MOTION_DOT":1.258e-5,"MEAN_MOTION_DDOT":0},{"OBJECT_NAME":"H-2A R/B","OBJECT_ID":"2006-002B","EPOCH":"2026-04-09T06:51:27.288864","MEAN_MOTION":15.17157788,"ECCENTRICITY":0.00525009,"INCLINATION":98.2473,"RA_OF_ASC_NODE":248.9676,"ARG_OF_PERICENTER":136.9473,"MEAN_ANOMALY":223.5884,"EPHEMERIS_TYPE":0,"CLASSIFICATION_TYPE":"U","NORAD_CAT_ID":28932,"ELEMENT_SET_NO":999,"REV_AT_EPOCH":9907,"BSTAR":0.00047262956,"MEAN_MOTION_DOT":9.644e-5,"MEAN_MOTION_DDOT":0},{"OBJECT_NAME":"RESURS-DK 1","OBJECT_ID":"2006-021A","EPOCH":"2026-04-09T06:44:45.977280","MEAN_MOTION":15.12933622,"ECCENTRICITY":0.00022521,"INCLINATION":69.9322,"RA_OF_ASC_NODE":157.885,"ARG_OF_PERICENTER":22.8151,"MEAN_ANOMALY":337.3115,"EPHEMERIS_TYPE":0,"CLASSIFICATION_TYPE":"U","NORAD_CAT_ID":29228,"ELEMENT_SET_NO":999,"REV_AT_EPOCH":9215,"BSTAR":0.00010930817,"MEAN_MOTION_DOT":1.823e-5,"MEAN_MOTION_DDOT":0},{"OBJECT_NAME":"CZ-4B R/B","OBJECT_ID":"2006-046C","EPOCH":"2026-04-09T01:58:26.616000","MEAN_MOTION":15.17233135,"ECCENTRICITY":0.00337264,"INCLINATION":97.5535,"RA_OF_ASC_NODE":143.9057,"ARG_OF_PERICENTER":159.8192,"MEAN_ANOMALY":200.4384,"EPHEMERIS_TYPE":0,"CLASSIFICATION_TYPE":"U","NORAD_CAT_ID":29507,"ELEMENT_SET_NO":999,"REV_AT_EPOCH":6465,"BSTAR":0.0001872821,"MEAN_MOTION_DOT":3.709e-5,"MEAN_MOTION_DDOT":0},{"OBJECT_NAME":"CZ-2C R/B","OBJECT_ID":"2007-010B","EPOCH":"2026-04-09T07:13:52.474656","MEAN_MOTION":14.20258358,"ECCENTRICITY":0.00585988,"INCLINATION":98.4011,"RA_OF_ASC_NODE":211.0506,"ARG_OF_PERICENTER":204.1415,"MEAN_ANOMALY":155.7014,"EPHEMERIS_TYPE":0,"CLASSIFICATION_TYPE":"U","NORAD_CAT_ID":31114,"ELEMENT_SET_NO":999,"REV_AT_EPOCH":98406,"BSTAR":8.6041199e-5,"MEAN_MOTION_DOT":1.46e-6,"MEAN_MOTION_DDOT":0},{"OBJECT_NAME":"COSMO-SKYMED 1","OBJECT_ID":"2007-023A","EPOCH":"2026-04-09T06:50:27.159648","MEAN_MOTION":14.96777647,"ECCENTRICITY":0.00017544,"INCLINATION":97.889,"RA_OF_ASC_NODE":290.5678,"ARG_OF_PERICENTER":92.1013,"MEAN_ANOMALY":268.0409,"EPHEMERIS_TYPE":0,"CLASSIFICATION_TYPE":"U","NORAD_CAT_ID":31598,"ELEMENT_SET_NO":999,"REV_AT_EPOCH":1948,"BSTAR":0.00030583671,"MEAN_MOTION_DOT":3.44e-5,"MEAN_MOTION_DDOT":0},{"OBJECT_NAME":"COSMOS 2428","OBJECT_ID":"2007-029A","EPOCH":"2026-04-09T04:32:04.248384","MEAN_MOTION":14.12948832,"ECCENTRICITY":0.00096606,"INCLINATION":70.9413,"RA_OF_ASC_NODE":139.3305,"ARG_OF_PERICENTER":245.1651,"MEAN_ANOMALY":114.8466,"EPHEMERIS_TYPE":0,"CLASSIFICATION_TYPE":"U","NORAD_CAT_ID":31792,"ELEMENT_SET_NO":999,"REV_AT_EPOCH":96840,"BSTAR":-2.7704467e-5,"MEAN_MOTION_DOT":-1.0e-6,"MEAN_MOTION_DDOT":0},{"OBJECT_NAME":"SL-16 R/B","OBJECT_ID":"2007-029B","EPOCH":"2026-04-09T00:42:47.814048","MEAN_MOTION":14.14842988,"ECCENTRICITY":0.0002906,"INCLINATION":70.9732,"RA_OF_ASC_NODE":108.608,"ARG_OF_PERICENTER":274.8795,"MEAN_ANOMALY":116.5943,"EPHEMERIS_TYPE":0,"CLASSIFICATION_TYPE":"U","NORAD_CAT_ID":31793,"ELEMENT_SET_NO":999,"REV_AT_EPOCH":96966,"BSTAR":-9.0219978e-5,"MEAN_MOTION_DOT":-2.22e-6,"MEAN_MOTION_DDOT":0},{"OBJECT_NAME":"KORONAS-FOTON","OBJECT_ID":"2009-003A","EPOCH":"2026-04-08T21:44:09.240864","MEAN_MOTION":15.44214061,"ECCENTRICITY":0.0011187,"INCLINATION":82.4293,"RA_OF_ASC_NODE":244.4405,"ARG_OF_PERICENTER":50.8995,"MEAN_ANOMALY":309.3246,"EPHEMERIS_TYPE":0,"CLASSIFICATION_TYPE":"U","NORAD_CAT_ID":33504,"ELEMENT_SET_NO":999,"REV_AT_EPOCH":95040,"BSTAR":0.00023354357,"MEAN_MOTION_DOT":0.00010782,"MEAN_MOTION_DDOT":0},{"OBJECT_NAME":"CZ-2C R/B","OBJECT_ID":"2011-030B","EPOCH":"2026-04-08T20:47:46.117536","MEAN_MOTION":14.81328554,"ECCENTRICITY":0.00509917,"INCLINATION":97.8592,"RA_OF_ASC_NODE":55.5383,"ARG_OF_PERICENTER":251.7324,"MEAN_ANOMALY":126.4038,"EPHEMERIS_TYPE":0,"CLASSIFICATION_TYPE":"U","NORAD_CAT_ID":37731,"ELEMENT_SET_NO":999,"REV_AT_EPOCH":79456,"BSTAR":0.00014365405,"MEAN_MOTION_DOT":1.091e-5,"MEAN_MOTION_DDOT":0},{"OBJECT_NAME":"H-2A R/B","OBJECT_ID":"2012-025E","EPOCH":"2026-04-09T07:26:32.613216","MEAN_MOTION":14.95380375,"ECCENTRICITY":0.00436447,"INCLINATION":98.4771,"RA_OF_ASC_NODE":68.823,"ARG_OF_PERICENTER":211.1361,"MEAN_ANOMALY":148.727,"EPHEMERIS_TYPE":0,"CLASSIFICATION_TYPE":"U","NORAD_CAT_ID":38341,"ELEMENT_SET_NO":999,"REV_AT_EPOCH":75279,"BSTAR":0.00022371423,"MEAN_MOTION_DOT":2.446e-5,"MEAN_MOTION_DDOT":0},{"OBJECT_NAME":"SHIJIAN-16 (SJ-16)","OBJECT_ID":"2013-057A","EPOCH":"2026-04-09T06:20:59.469216","MEAN_MOTION":14.9245114,"ECCENTRICITY":0.0015499,"INCLINATION":74.9705,"RA_OF_ASC_NODE":127.2049,"ARG_OF_PERICENTER":33.4786,"MEAN_ANOMALY":326.7379,"EPHEMERIS_TYPE":0,"CLASSIFICATION_TYPE":"U","NORAD_CAT_ID":39358,"ELEMENT_SET_NO":999,"REV_AT_EPOCH":67606,"BSTAR":8.0435416e-5,"MEAN_MOTION_DOT":7.97e-6,"MEAN_MOTION_DDOT":0},{"OBJECT_NAME":"SL-4 R/B","OBJECT_ID":"2014-021B","EPOCH":"2026-04-09T06:19:12.419616","MEAN_MOTION":15.4033231,"ECCENTRICITY":0.00938071,"INCLINATION":51.6054,"RA_OF_ASC_NODE":188.0028,"ARG_OF_PERICENTER":214.6241,"MEAN_ANOMALY":144.8613,"EPHEMERIS_TYPE":0,"CLASSIFICATION_TYPE":"U","NORAD_CAT_ID":39679,"ELEMENT_SET_NO":999,"REV_AT_EPOCH":66098,"BSTAR":0.00030319215,"MEAN_MOTION_DOT":0.00014099,"MEAN_MOTION_DDOT":0},{"OBJECT_NAME":"ALOS-2","OBJECT_ID":"2014-029A","EPOCH":"2026-04-07T12:43:48.631008","MEAN_MOTION":14.79459327,"ECCENTRICITY":0.0001762,"INCLINATION":97.9196,"RA_OF_ASC_NODE":195.7083,"ARG_OF_PERICENTER":93.2091,"MEAN_ANOMALY":266.9322,"EPHEMERIS_TYPE":0,"CLASSIFICATION_TYPE":"U","NORAD_CAT_ID":39766,"ELEMENT_SET_NO":999,"REV_AT_EPOCH":64113,"BSTAR":1.4196e-5,"MEAN_MOTION_DOT":5.5e-7,"MEAN_MOTION_DDOT":0},{"OBJECT_NAME":"YAOGAN-29","OBJECT_ID":"2015-069A","EPOCH":"2026-04-09T06:59:49.061184","MEAN_MOTION":14.83029574,"ECCENTRICITY":4.992e-5,"INCLINATION":98.01,"RA_OF_ASC_NODE":127.7974,"ARG_OF_PERICENTER":172.9847,"MEAN_ANOMALY":187.1373,"EPHEMERIS_TYPE":0,"CLASSIFICATION_TYPE":"U","NORAD_CAT_ID":41038,"ELEMENT_SET_NO":999,"REV_AT_EPOCH":56041,"BSTAR":4.1549445e-5,"MEAN_MOTION_DOT":2.84e-6,"MEAN_MOTION_DDOT":0},{"OBJECT_NAME":"ASTRO-H (HITOMI)","OBJECT_ID":"2016-012A","EPOCH":"2026-04-09T05:42:07.202304","MEAN_MOTION":15.10206812,"ECCENTRICITY":0.00096864,"INCLINATION":30.9983,"RA_OF_ASC_NODE":159.3833,"ARG_OF_PERICENTER":278.5571,"MEAN_ANOMALY":81.3969,"EPHEMERIS_TYPE":0,"CLASSIFICATION_TYPE":"U","NORAD_CAT_ID":41337,"ELEMENT_SET_NO":999,"REV_AT_EPOCH":55685,"BSTAR":0.00014619166,"MEAN_MOTION_DOT":2.545e-5,"MEAN_MOTION_DDOT":0}]
